NORAD_CAT_ID,OBJECT_NAME,OBJECT_TYPE,EPOCH,MEAN_MOTION,ECCENTRICITY,INCLINATION,RA_OF_ASC_NODE,ARG_OF_PERICENTER,MEAN_ANOMALY,BSTAR,MEAN_MOTION_DOT,MEAN_MOTION_DDOT,TLE_LINE0,TLE_LINE1,TLE_LINE2,SEMIMAJOR_AXIS,PERIOD,APOGEE,PERIGEE,DECAYED
53899.0,STARLINK-5042,PAYLOAD,2024-04-17 12:17:11,15.08810256,0.0001473,53.2158,186.6937,80.8294,279.2865,-0.00046794,-7.721e-05,0.0,0 STARLINK-5042,1 53899U 22119P   24108.51193861 -.00007721  00000-0 -46794-3 0  9990,2 53899  53.2158 186.6937 0001473  80.8294 279.2865 15.08810256 86926,6917.971,95.439,540.855,538.817,0.0
53899.0,STARLINK-5042,PAYLOAD,2024-04-17 21:49:30,15.08818718,0.0001263,53.2148,184.9104,84.0637,276.0499,-0.00028476,-4.814e-05,0.0,0 STARLINK-5042,1 53899U 22119P   24108.90937786 -.00004814  00000-0 -28476-3 0  9992,2 53899  53.2148 184.9104 0001263  84.0637 276.0499 15.08818718 87409,6917.945,95.439,540.684,538.937,0.0
53899.0,STARLINK-5042,PAYLOAD,2024-04-18 04:11:03,15.08813217,0.0001206,53.2148,183.7218,90.2367,269.8763,-0.00018364,-3.207e-05,0.0,0 STARLINK-5042,1 53899U 22119P   24109.17434334 -.00003207  00000-0 -18364-3 0  9993,2 53899  53.2148 183.7218 0001206  90.2367 269.8763 15.08813217 87029,6917.962,95.439,540.662,538.993,0.0
53899.0,STARLINK-5042,PAYLOAD,2024-04-18 10:32:35,15.08823861,0.000136,53.2147,182.5328,87.1258,272.9889,-2.7195e-05,-7.2e-06,0.0,0 STARLINK-5042,1 53899U 22119P   24109.43930121 -.00000720  00000-0 -27195-4 0  9997,2 53899  53.2147 182.5328 0001360  87.1258 272.9889 15.08823861 87066,6917.93,95.439,540.736,538.854,0.0
53899.0,STARLINK-5042,PAYLOAD,2024-04-19 11:58:45,15.08847102,0.0001492,53.2156,177.7762,88.3388,271.7775,0.00037575,5.698e-05,0.0,0 STARLINK-5042,1 53899U 22119P   24110.49913885  .00005698  00000-0  37575-3 0  9992,2 53899  53.2156 177.7762 0001492  88.3388 271.7775 15.08847102 87220,6917.859,95.437,540.756,538.692,0.0
53899.0,STARLINK-5042,PAYLOAD,2024-04-19 13:34:08,15.08852787,0.000154,53.2158,177.4789,93.7533,266.3635,0.00079405,0.00012376,0.0,0 STARLINK-5042,1 53899U 22119P   24110.56538034  .00012376  00000-0  79405-3 0  9998,2 53899  53.2158 177.4789 0001540  93.7533 266.3635 15.08852787 87651,6917.841,95.437,540.772,538.641,0.0
53899.0,STARLINK-5042,PAYLOAD,2024-04-20 03:52:35,15.08887123,0.0001587,53.2159,174.8029,95.2443,264.873,0.0012626,0.00019889,0.0,0 STARLINK-5042,1 53899U 22119P   24111.16152490  .00019889  00000-0  12626-2 0  9990,2 53899  53.2159 174.8029 0001587  95.2443 264.8730 15.08887123 87323,6917.736,95.435,540.699,538.504,0.0
53899.0,STARLINK-5042,PAYLOAD,2024-04-20 11:49:32,15.08820652,0.0001156,53.2159,173.3167,85.5423,274.5701,-0.0015627,-0.00025059,0.0,0 STARLINK-5042,1 53899U 22119P   24111.49273161 -.00025059  00000-0 -15627-2 0  9997,2 53899  53.2159 173.3167 0001156  85.5423 274.5701 15.08820652 87377,6917.94,95.439,540.604,539.005,0.0
53899.0,STARLINK-5042,PAYLOAD,2024-04-20 13:24:55,15.08818016,0.0001059,53.2158,173.0189,89.3151,270.7962,-0.0012783,-0.00020562,0.0,0 STARLINK-5042,1 53899U 22119P   24111.55897233 -.00020562  00000-0 -12783-2 0  9990,2 53899  53.2158 173.0189 0001059  89.3151 270.7962 15.08818016 87805,6917.948,95.439,540.545,539.08,0.0
53899.0,STARLINK-5042,PAYLOAD,2024-04-21 03:43:24,15.08808654,9.29e-05,53.216,170.3413,83.05,277.0598,0.0011949,0.00018764,0.0,0 STARLINK-5042,1 53899U 22119P   24112.15514481  .00018764  00000-0  11949-2 0  9990,2 53899  53.2160 170.3413 0000929  83.0500 277.0598 15.08808654 87477,6917.976,95.44,540.484,539.199,0.0
53899.0,STARLINK-5042,PAYLOAD,2024-04-21 10:04:57,15.08828624,0.0001016,53.2154,169.1551,88.63,271.4808,0.0016284,0.00025715,0.0,0 STARLINK-5042,1 53899U 22119P   24112.42010689  .00025715  00000-0  16284-2 0  9992,2 53899  53.2154 169.1551 0001016  88.6300 271.4808 15.08828624 87938,6917.915,95.438,540.483,539.077,0.0
53899.0,STARLINK-5042,PAYLOAD,2024-04-22 03:34:11,15.08859445,0.0001592,53.2153,165.8847,54.818,305.2961,0.0014843,0.00023426,0.0,0 STARLINK-5042,1 53899U 22119P   24113.14874767  .00023426  00000-0  14843-2 0  9993,2 53899  53.2153 165.8847 0001592  54.8180 305.2961 15.08859445 87625,6917.821,95.436,540.787,538.585,0.0
53899.0,STARLINK-5042,PAYLOAD,2024-04-22 09:55:44,15.08848474,0.0001411,53.2163,164.6894,129.0304,231.0814,0.00069269,0.00010756,0.0,0 STARLINK-5042,1 53899U 22119P   24113.41370446  .00010756  00000-0  69269-3 0  9993,2 53899  53.2163 164.6894 0001411 129.0304 231.0814 15.08848474 87665,6917.854,95.437,540.696,538.743,0.0
53899.0,STARLINK-5042,PAYLOAD,2024-04-22 13:06:30,15.08852132,0.000132,53.216,164.0949,125.8445,234.267,0.00070964,0.00011028,0.0,0 STARLINK-5042,1 53899U 22119P   24113.54618353  .00011028  00000-0  70964-3 0  9996,2 53899  53.2160 164.0949 0001320 125.8445 234.2670 15.08852132 88107,6917.843,95.437,540.621,538.795,0.0
53899.0,STARLINK-5042,PAYLOAD,2024-04-23 09:46:30,15.08846382,0.0001111,53.2153,160.2273,107.2044,252.9069,0.00020715,3.011e-05,0.0,0 STARLINK-5042,1 53899U 22119P   24114.40730273  .00003011  00000-0  20715-3 0  9990,2 53899  53.2153 160.2273 0001111 107.2044 252.9069 15.08846382 87810,6917.861,95.437,540.494,538.957,0.0
53899.0,STARLINK-5042,PAYLOAD,2024-04-24 09:37:17,15.08858105,0.0001226,53.2151,155.7667,109.1486,250.9639,0.00030206,4.525e-05,0.0,0 STARLINK-5042,1 53899U 22119P   24115.40089243  .00004525  00000-0  30206-3 0  9992,2 53899  53.2151 155.7667 0001226 109.1486 250.9639 15.08858105 88382,6917.825,95.436,540.538,538.842,0.0
53899.0,STARLINK-5042,PAYLOAD,2024-04-25 03:06:31,15.08845583,0.0001452,53.2158,152.5006,97.7886,262.3271,4.164e-05,3.75e-06,0.0,0 STARLINK-5042,1 53899U 22119P   24116.12953420  .00000375  00000-0  41640-4 0  9993,2 53899  53.2158 152.5006 0001452  97.7886 262.3271 15.08845583 88079,6917.863,95.437,540.733,538.724,0.0
53899.0,STARLINK-5042,PAYLOAD,2024-04-25 09:28:04,15.08827561,0.0001375,53.2156,151.3091,110.6966,249.4174,-0.00031508,-5.297e-05,0.0,0 STARLINK-5042,1 53899U 22119P   24116.39449959 -.00005297  00000-0 -31508-3 0  9990,2 53899  53.2156 151.3091 0001375 110.6966 249.4174 15.08827561 88115,6917.918,95.438,540.735,538.832,0.0
53899.0,STARLINK-5042,PAYLOAD,2024-04-26 10:54:15,15.08837484,0.0001323,53.2151,146.5509,109.7131,250.4004,0.00030229,4.526e-05,0.0,0 STARLINK-5042,1 53899U 22119P   24117.45434384  .00004526  00000-0  30229-3 0  9995,2 53899  53.2151 146.5509 0001323 109.7131 250.4004 15.08837484 88272,6917.888,95.438,540.668,538.838,0.0
53899.0,STARLINK-5042,PAYLOAD,2024-04-26 18:51:11,15.08847906,0.0001252,53.2145,145.0662,97.6633,262.4501,0.00074162,0.00011537,0.0,0 STARLINK-5042,1 53899U 22119P   24117.78554464  .00011537  00000-0  74162-3 0  9997,2 53899  53.2145 145.0662 0001252  97.6633 262.4501 15.08847906 88749,6917.856,95.437,540.587,538.855,0.0
53899.0,STARLINK-5042,PAYLOAD,2024-04-27 10:45:02,15.08857376,0.000131,53.2145,142.0913,94.6467,265.4675,0.00054514,8.403e-05,0.0,0 STARLINK-5042,1 53899U 22119P   24118.44793990  .00008403  00000-0  54514-3 0  9997,2 53899  53.2145 142.0913 0001310  94.6467 265.4675 15.08857376 88840,6917.827,95.436,540.599,538.786,0.0
53899.0,STARLINK-5042,PAYLOAD,2024-04-27 18:41:57,15.08865449,0.0001597,53.2161,140.5984,82.1554,277.9619,0.00062936,9.749e-05,0.0,0 STARLINK-5042,1 53899U 22119P   24118.77913491  .00009749  00000-0  62936-3 0  9994,2 53899  53.2161 140.5984 0001597  82.1554 277.9619 15.08865449 88470,6917.803,95.436,540.772,538.563,0.0
53899.0,STARLINK-5042,PAYLOAD,2024-04-28 10:35:49,15.08831741,0.0001353,53.2146,137.6309,83.5817,276.5329,-0.00019163,-3.336e-05,0.0,0 STARLINK-5042,1 53899U 22119P   24119.44154362 -.00003336  00000-0 -19163-3 0  9995,2 53899  53.2146 137.6309 0001353  83.5817 276.5329 15.08831741 88570,6917.906,95.438,540.707,538.835,0.0
53899.0,STARLINK-5042,PAYLOAD,2024-04-28 18:32:45,15.08830352,0.0001366,53.2147,136.1441,82.1572,277.9575,-3.051e-05,-7.73e-06,0.0,0 STARLINK-5042,1 53899U 22119P   24119.77274649 -.00000773  00000-0 -30510-4 0  9994,2 53899  53.2147 136.1441 0001366  82.1572 277.9575 15.08830352 89047,6917.91,95.438,540.72,538.83,0.0
53899.0,STARLINK-5042,PAYLOAD,2024-04-29 07:15:50,15.08834516,0.0001348,53.2146,133.7649,82.0094,278.1052,0.00044213,6.755e-05,0.0,0 STARLINK-5042,1 53899U 22119P   24120.30267045  .00006755  00000-0  44213-3 0  9995,2 53899  53.2146 133.7649 0001348  82.0094 278.1052 15.08834516 89125,6917.897,95.438,540.695,538.83,0.0
53899.0,STARLINK-5042,PAYLOAD,2024-04-29 18:23:32,15.08842649,0.0001376,53.215,131.6833,81.022,279.0928,0.0005394,8.308e-05,0.0,0 STARLINK-5042,1 53899U 22119P   24120.76635086  .00008308  00000-0  53940-3 0  9992,2 53899  53.2150 131.6833 0001376  81.0220 279.0928 15.08842649 88771,6917.872,95.437,540.689,538.785,0.0
53899.0,STARLINK-5042,PAYLOAD,2024-04-30 07:06:37,15.08851089,0.0001395,53.2153,129.3045,80.4895,279.6255,0.00050842,7.815e-05,0.0,0 STARLINK-5042,1 53899U 22119P   24121.29626790  .00007815  00000-0  50842-3 0  9993,2 53899  53.2153 129.3045 0001395  80.4895 279.6255 15.08851089 89278,6917.846,95.437,540.677,538.746,0.0
53899.0,STARLINK-5042,PAYLOAD,2024-05-01 03:46:38,15.0884983,0.0001397,53.2156,125.4383,81.1532,278.9619,0.00024086,3.548e-05,0.0,0 STARLINK-5042,1 53899U 22119P   24122.15738477  .00003548  00000-0  24086-3 0  9995,2 53899  53.2156 125.4383 0001397  81.1532 278.9619 15.08849830 88985,6917.85,95.437,540.682,538.749,0.0
53899.0,STARLINK-5042,PAYLOAD,2024-05-01 06:57:24,15.08848186,0.0001398,53.2157,124.8432,83.5113,276.6038,0.00019414,2.804e-05,0.0,0 STARLINK-5042,1 53899U 22119P   24122.28986472  .00002804  00000-0  19414-3 0  9992,2 53899  53.2157 124.8432 0001398  83.5113 276.6038 15.08848186 89429,6917.855,95.437,540.687,538.753,0.0
53899.0,STARLINK-5042,PAYLOAD,2024-05-02 03:37:25,15.08841118,0.0001378,53.2155,120.9767,83.3606,276.7543,4.3693e-06,-2.18e-06,0.0,0 STARLINK-5042,1 53899U 22119P   24123.15098542 -.00000218  00000-0  43693-5 0  9997,2 53899  53.2155 120.9767 0001378  83.3606 276.7543 15.08841118 89136,6917.877,95.437,540.695,538.789,0.0
